CELESTIS-02             
1 25160U 98007D   22312.37224635  .00000045  00000+0  77837-4 0  9994
2 25160 107.9830 196.5801 0063729 225.2370 231.2931 14.21661019283311
CELESTIS-03             
1 26034U 99070C   22312.37363534  .00034732  00000+0  14122-2 0  9994
2 26034  98.3057 333.1446 0009002  11.6689 348.4752 15.24427581242959
